{
  "type": "FeatureCollection",
  "features": [
    {
      "type": "Feature",
      "properties": {
        "norad_id": 26766,
        "name": "INTELSAT 10 (IS-10)",
        "group": "intelsat",
        "lat": -1.0586059634855385,
        "lon": 54.00186020157115,
        "alt_km": 36143.82944469188,
        "timestamp": "2025-12-20T14:38:01.625910+00:00",
        "meta_object_name": "INTELSAT 10 (IS-10)",
        "meta_object_id": "2001-019A",
        "meta_epoch": "2025-12-19T15:29:42.245376",
        "meta_mean_motion": 0.99074952,
        "meta_eccentricity": 0.00077634,
        "meta_inclination": 8.645,
        "meta_ra_of_asc_node": 61.0877,
        "meta_arg_of_pericenter": 228.9364,
        "meta_mean_anomaly": 139.953,
        "meta_ephemeris_type": 0,
        "meta_classification_type": "U",
        "meta_norad_cat_id": 26766,
        "meta_element_set_no": 999,
        "meta_rev_at_epoch": 4380,
        "meta_bstar": 0,
        "meta_mean_motion_dot": -1.33e-06,
        "meta_mean_motion_ddot": 0,
        "tle_line1": "1 26766U 01019A   25353.64562784 -.00000133  00000+0  00000+0 0  9994",
        "tle_line2": "2 26766   8.6450  61.0877 0007763 228.9364 139.9530  0.99074952 43808"
      },
      "geometry": {
        "type": "Point",
        "coordinates": [
          54.00186020157115,
          -1.0586059634855385
        ]
      }
    },
    {
      "type": "Feature",
      "properties": {
        "norad_id": 26900,
        "name": "INTELSAT 902 (IS-902)",
        "group": "intelsat",
        "lat": -0.500827596501458,
        "lon": -101.22074743262078,
        "alt_km": 35767.95059164794,
        "timestamp": "2025-12-20T14:38:01.625934+00:00",
        "meta_object_name": "INTELSAT 902 (IS-902)",
        "meta_object_id": "2001-039A",
        "meta_epoch": "2025-12-15T13:09:02.081664",
        "meta_mean_motion": 1.0027087,
        "meta_eccentricity": 0.00045028,
        "meta_inclination": 5.6536,
        "meta_ra_of_asc_node": 74.0372,
        "meta_arg_of_pericenter": 189.6359,
        "meta_mean_anomaly": 327.9329,
        "meta_ephemeris_type": 0,
        "meta_classification_type": "U",
        "meta_norad_cat_id": 26900,
        "meta_element_set_no": 999,
        "meta_rev_at_epoch": 8885,
        "meta_bstar": 0,
        "meta_mean_motion_dot": -2.65e-06,
        "meta_mean_motion_ddot": 0,
        "tle_line1": "1 26900U 01039A   25349.54794076 -.00000265  00000+0  00000+0 0  9997",
        "tle_line2": "2 26900   5.6536  74.0372 0004502 189.6359 327.9329  1.00270870 88858"
      },
      "geometry": {
        "type": "Point",
        "coordinates": [
          -101.22074743262078,
          -0.500827596501458
        ]
      }
    },
    {
      "type": "Feature",
      "properties": {
        "norad_id": 27380,
        "name": "INTELSAT 904 (IS-904)",
        "group": "intelsat",
        "lat": -2.867485316588975,
        "lon": -82.71479329242281,
        "alt_km": 35781.077404299256,
        "timestamp": "2025-12-20T14:38:01.625952+00:00",
        "meta_object_name": "INTELSAT 904 (IS-904)",
        "meta_object_id": "2002-007A",
        "meta_epoch": "2025-12-20T00:12:38.708640",
        "meta_mean_motion": 1.00271119,
        "meta_eccentricity": 0.00017883,
        "meta_inclination": 6.4716,
        "meta_ra_of_asc_node": 71.3489,
        "meta_arg_of_pericenter": 248.0569,
        "meta_mean_anomaly": 101.1022,
        "meta_ephemeris_type": 0,
        "meta_classification_type": "U",
        "meta_norad_cat_id": 27380,
        "meta_element_set_no": 999,
        "meta_rev_at_epoch": 4996,
        "meta_bstar": 0,
        "meta_mean_motion_dot": -2.07e-06,
        "meta_mean_motion_ddot": 0,
        "tle_line1": "1 27380U 02007A   25354.00878135 -.00000207  00000+0  00000+0 0  9998",
        "tle_line2": "2 27380   6.4716  71.3489 0001788 248.0569 101.1022  1.00271119 49963"
      },
      "geometry": {
        "type": "Point",
        "coordinates": [
          -82.71479329242281,
          -2.867485316588975
        ]
      }
    },
    {
      "type": "Feature",
      "properties": {
        "norad_id": 27426,
        "name": "DIRECTV 5 (TEMPO 1)",
        "group": "intelsat",
        "lat": 3.773202962921459,
        "lon": -161.12338863349026,
        "alt_km": 35784.74652846217,
        "timestamp": "2025-12-20T14:38:01.625965+00:00",
        "meta_object_name": "DIRECTV 5 (TEMPO 1)",
        "meta_object_id": "2002-023A",
        "meta_epoch": "2025-12-20T00:59:06.912672",
        "meta_mean_motion": 1.00272785,
        "meta_eccentricity": 0.00034472,
        "meta_inclination": 4.4196,
        "meta_ra_of_asc_node": 77.5684,
        "meta_arg_of_pericenter": 209.2291,
        "meta_mean_anomaly": 66.7541,
        "meta_ephemeris_type": 0,
        "meta_classification_type": "U",
        "meta_norad_cat_id": 27426,
        "meta_element_set_no": 999,
        "meta_rev_at_epoch": 8632,
        "meta_bstar": 0,
        "meta_mean_motion_dot": -3.7e-07,
        "meta_mean_motion_ddot": 0,
        "tle_line1": "1 27426U 02023A   25354.04105223 -.00000037  00000+0  00000+0 0  9993",
        "tle_line2": "2 27426   4.4196  77.5684 0003447 209.2291  66.7541  1.00272785 86327"
      },
      "geometry": {
        "type": "Point",
        "coordinates": [
          -161.12338863349026,
          3.773202962921459
        ]
      }
    },
    {
      "type": "Feature",
      "properties": {
        "norad_id": 27438,
        "name": "INTELSAT 905 (IS-905)",
        "group": "intelsat",
        "lat": 6.221329585953035,
        "lon": 171.76819509473498,
        "alt_km": 35787.12773202898,
        "timestamp": "2025-12-20T14:38:01.625978+00:00",
        "meta_object_name": "INTELSAT 905 (IS-905)",
        "meta_object_id": "2002-027A",
        "meta_epoch": "2025-12-20T05:40:17.750784",
        "meta_mean_motion": 1.00272535,
        "meta_eccentricity": 0.00026517,
        "meta_inclination": 6.3032,
        "meta_ra_of_asc_node": 71.9695,
        "meta_arg_of_pericenter": 200.5359,
        "meta_mean_anomaly": 124.4326,
        "meta_ephemeris_type": 0,
        "meta_classification_type": "U",
        "meta_norad_cat_id": 27438,
        "meta_element_set_no": 999,
        "meta_rev_at_epoch": 4956,
        "meta_bstar": 0,
        "meta_mean_motion_dot": 1.13e-06,
        "meta_mean_motion_ddot": 0,
        "tle_line1": "1 27438U 02027A   25354.23631656  .00000113  00000+0  00000+0 0  9999",
        "tle_line2": "2 27438   6.3032  71.9695 0002651 200.5359 124.4326  1.00272535 49566"
      },
      "geometry": {
        "type": "Point",
        "coordinates": [
          171.76819509473498,
          6.221329585953035
        ]
      }
    },
    {
      "type": "Feature",
      "properties": {
        "norad_id": 27445,
        "name": "GALAXY 3C (G-3C)",
        "group": "intelsat",
        "lat": 2.3598503731010814,
        "lon": -145.85750524012855,
        "alt_km": 35783.15643733644,
        "timestamp": "2025-12-20T14:38:01.626007+00:00",
        "meta_object_name": "GALAXY 3C (G-3C)",
        "meta_object_id": "2002-030A",
        "meta_epoch": "2025-12-20T03:29:00.040704",
        "meta_mean_motion": 1.00271829,
        "meta_eccentricity": 0.00011185,
        "meta_inclination": 3.2813,
        "meta_ra_of_asc_node": 80.4298,
        "meta_arg_of_pericenter": 77.884,
        "meta_mean_anomaly": 248.0601,
        "meta_ephemeris_type": 0,
        "meta_classification_type": "U",
        "meta_norad_cat_id": 27445,
        "meta_element_set_no": 999,
        "meta_rev_at_epoch": 4469,
        "meta_bstar": 0,
        "meta_mean_motion_dot": -1.31e-06,
        "meta_mean_motion_ddot": 0,
        "tle_line1": "1 27445U 02030A   25354.14513936 -.00000131  00000+0  00000+0 0  9992",
        "tle_line2": "2 27445   3.2813  80.4298 0001118  77.8840 248.0601  1.00271829 44691"
      },
      "geometry": {
        "type": "Point",
        "coordinates": [
          -145.85750524012855,
          2.3598503731010814
        ]
      }
    },
    {
      "type": "Feature",
      "properties": {
        "norad_id": 27513,
        "name": "INTELSAT 906 (IS-906)",
        "group": "intelsat",
        "lat": -4.719103675981322,
        "lon": 13.252963855520711,
        "alt_km": 35790.87574130654,
        "timestamp": "2025-12-20T14:38:01.626021+00:00",
        "meta_object_name": "INTELSAT 906 (IS-906)",
        "meta_object_id": "2002-041A",
        "meta_epoch": "2025-12-19T20:34:46.617600",
        "meta_mean_motion": 1.00272721,
        "meta_eccentricity": 0.00063182,
        "meta_inclination": 5.3475,
        "meta_ra_of_asc_node": 75.1475,
        "meta_arg_of_pericenter": 198.3862,
        "meta_mean_anomaly": 187.9892,
        "meta_ephemeris_type": 0,
        "meta_classification_type": "U",
        "meta_norad_cat_id": 27513,
        "meta_element_set_no": 999,
        "meta_rev_at_epoch": 8523,
        "meta_bstar": 0,
        "meta_mean_motion_dot": 3.3e-07,
        "meta_mean_motion_ddot": 0,
        "tle_line1": "1 27513U 02041A   25353.85748400  .00000033  00000+0  00000+0 0  9993",
        "tle_line2": "2 27513   5.3475  75.1475 0006318 198.3862 187.9892  1.00272721 85232"
      },
      "geometry": {
        "type": "Point",
        "coordinates": [
          13.252963855520711,
          -4.719103675981322
        ]
      }
    }
  ]
}